{"type": "FeatureCollection", "features": [ {"type": "Feature", "properties": {"norad_id": 66650, "name": "BEE-1000", "group": "last-30-days", "lat": -36.07172622734166, "lon": -75.64002546760742, "alt_km": 599.0539380914124, "timestamp": "2025-12-17T13:48:36.279787+00:00", "meta": {"OBJECT_NAME": "BEE-1000", "OBJECT_ID": "2025-274A", "EPOCH": "2025-12-17T07:32:00.988512", "MEAN_MOTION": 14.91677428, "ECCENTRICITY": 0.00105858, "INCLINATION": 97.7397, "RA_OF_ASC_NODE": 278.4175, "ARG_OF_PERICENTER": 234.4842, "MEAN_ANOMALY": 125.539, "EPHEMERIS_TYPE": 0, "CLASSIFICATION_TYPE": "U", "NORAD_CAT_ID": 66650, "ELEMENT_SET_NO": 999, "REV_AT_EPOCH": 308, "BSTAR": 0.00012929605, "MEAN_MOTION_DOT": 1.245e-05, "MEAN_MOTION_DDOT": 0}, "tle": {"line1": "1 66650U 25274A   25351.31390033  .00001245  00000+0  12930-3 0  9990", "line2": "2 66650  97.7397 278.4175 0010585 234.4842 125.5390 14.91677428  3082"}}, "geometry": {"type": "Point", "coordinates": [-75.64002546760742, -36.07172622734166]}}, {"type": "Feature", "properties": {"norad_id": 66651, "name": "2025-274B", "group": "last-30-days", "lat": -28.633720559440665, "lon": -77.06583895607812, "alt_km": 599.2519809431651, "timestamp": "2025-12-17T13:48:36.279797+00:00", "meta": {"OBJECT_NAME": "2025-274B", "OBJECT_ID": "2025-274B", "EPOCH": "2025-12-17T07:30:01.927584", "MEAN_MOTION": 14.91832453, "ECCENTRICITY": 0.00108432, "INCLINATION": 97.7392, "RA_OF_ASC_NODE": 278.4179, "ARG_OF_PERICENTER": 233.404, "MEAN_ANOMALY": 126.6182, "EPHEMERIS_TYPE": 0, "CLASSIFICATION_TYPE": "U", "NORAD_CAT_ID": 66651, "ELEMENT_SET_NO": 999, "REV_AT_EPOCH": 308, "BSTAR": 0.00024060193, "MEAN_MOTION_DOT": 2.375e-05, "MEAN_MOTION_DDOT": 0}, "tle": {"line1": "1 66651U 25274B   25351.31252231  .00002375  00000+0  24060-3 0  9990", "line2": "2 66651  97.7392 278.4179 0010843 233.4040 126.6182 14.91832453  3080"}}, "geometry": {"type": "Point", "coordinates": [-77.06583895607812, -28.633720559440665]}}, {"type": "Feature", "properties": {"norad_id": 66652, "name": "2025-274C", "group": "last-30-days", "lat": -19.34143362355609, "lon": -78.58246195809556, "alt_km": 598.4789353425422, "timestamp": "2025-12-17T13:48:36.279806+00:00", "meta": {"OBJECT_NAME": "2025-274C", "OBJECT_ID": "2025-274C", "EPOCH": "2025-12-17T07:27:31.886208", "MEAN_MOTION": 14.91928378, "ECCENTRICITY": 0.00104375, "INCLINATION": 97.7398, "RA_OF_ASC_NODE": 278.4214, "ARG_OF_PERICENTER": 240.4439, "MEAN_ANOMALY": 119.574, "EPHEMERIS_TYPE": 0, "CLASSIFICATION_TYPE": "U", "NORAD_CAT_ID": 66652, "ELEMENT_SET_NO": 999, "REV_AT_EPOCH": 308, "BSTAR": 0.00019448666, "MEAN_MOTION_DOT": 1.913e-05, "MEAN_MOTION_DDOT": 0}, "tle": {"line1": "1 66652U 25274C   25351.31078572  .00001913  00000+0  19449-3 0  9997", "line2": "2 66652  97.7398 278.4214 0010437 240.4439 119.5740 14.91928378  3089"}}, "geometry": {"type": "Point", "coordinates": [-78.58246195809556, -19.34143362355609]}}, {"type": "Feature", "properties": {"norad_id": 66653, "name": "2025-274D", "group": "last-30-days", "lat": -18.883211739973163, "lon": -78.65257424492488, "alt_km": 599.1345265484515, "timestamp": "2025-12-17T13:48:36.279818+00:00", "meta": {"OBJECT_NAME": "2025-274D", "OBJECT_ID": "2025-274D", "EPOCH": "2025-12-17T07:27:24.498144", "MEAN_MOTION": 14.91929407, "ECCENTRICITY": 0.00113118, "INCLINATION": 97.7395, "RA_OF_ASC_NODE": 278.4212, "ARG_OF_PERICENTER": 236.5537, "MEAN_ANOMALY": 123.46, "EPHEMERIS_TYPE": 0, "CLASSIFICATION_TYPE": "U", "NORAD_CAT_ID": 66653, "ELEMENT_SET_NO": 999, "REV_AT_EPOCH": 308, "BSTAR": 0.0001380376, "MEAN_MOTION_DOT": 1.342e-05, "MEAN_MOTION_DDOT": 0}, "tle": {"line1": "1 66653U 25274D   25351.31070021  .00001342  00000+0  13804-3 0  9994", "line2": "2 66653  97.7395 278.4212 0011311 236.5537 123.4600 14.91929407  3085"}}, "geometry": {"type": "Point", "coordinates": [-78.65257424492488, -18.883211739973163]}}, {"type": "Feature", "properties": {"norad_id": 66654, "name": "JACK E", "group": "last-30-days", "lat": -6.224780354567552, "lon": -80.46229743226235, "alt_km": 598.8200349934741, "timestamp": "2025-12-17T13:48:36.279827+00:00", "meta": {"OBJECT_NAME": "JACK E", "OBJECT_ID": "2025-274E", "EPOCH": "2025-12-17T05:47:27.284928", "MEAN_MOTION": 14.9210972, "ECCENTRICITY": 0.0011849, "INCLINATION": 97.7399, "RA_OF_ASC_NODE": 278.3595, "ARG_OF_PERICENTER": 238.6738, "MEAN_ANOMALY": 121.3322, "EPHEMERIS_TYPE": 0, "CLASSIFICATION_TYPE": "U", "NORAD_CAT_ID": 66654, "ELEMENT_SET_NO": 999, "REV_AT_EPOCH": 307, "BSTAR": 0.00018318685, "MEAN_MOTION_DOT": 1.808e-05, "MEAN_MOTION_DDOT": 0}, "tle": {"line1": "1 66654U 25274E   25351.24128802  .00001808  00000+0  18319-3 0  9991", "line2": "2 66654  97.7399 278.3595 0011849 238.6738 121.3322 14.92109720  3071"}}, "geometry": {"type": "Point", "coordinates": [-80.46229743226235, -6.224780354567552]}}, {"type": "Feature", "properties": {"norad_id": 66655, "name": "2025-274F", "group": "last-30-days", "lat": -19.287072439337862, "lon": -78.59552676791297, "alt_km": 596.1105799583247, "timestamp": "2025-12-17T13:48:36.279837+00:00", "meta": {"OBJECT_NAME": "2025-274F", "OBJECT_ID": "2025-274F", "EPOCH": "2025-12-16T18:34:17.228064", "MEAN_MOTION": 14.91167242, "ECCENTRICITY": 0.00052999, "INCLINATION": 97.7319, "RA_OF_ASC_NODE": 277.8939, "ARG_OF_PERICENTER": 8.16, "MEAN_ANOMALY": 351.9703, "EPHEMERIS_TYPE": 0, "CLASSIFICATION_TYPE": "U", "NORAD_CAT_ID": 66655, "ELEMENT_SET_NO": 999, "REV_AT_EPOCH": 300, "BSTAR": -1.279618e-06, "MEAN_MOTION_DOT": -6.8e-07, "MEAN_MOTION_DDOT": 0}, "tle": {"line1": "1 66655U 25274F   25350.77381051 -.00000068  00000+0 -12796-5 0  9990", "line2": "2 66655  97.7319 277.8939 0005299   8.1600 351.9703 14.91167242  3009"}}, "geometry": {"type": "Point", "coordinates": [-78.59552676791297, -19.287072439337862]}}, {"type": "Feature", "properties": {"norad_id": 66656, "name": "2025-274G", "group": "last-30-days", "lat": 7.604186392717152, "lon": -82.34765366644713, "alt_km": 598.1627400580155, "timestamp": "2025-12-17T13:48:36.279848+00:00", "meta": {"OBJECT_NAME": "2025-274G", "OBJECT_ID": "2025-274G", "EPOCH": "2025-12-17T07:20:19.483584", "MEAN_MOTION": 14.92303559, "ECCENTRICITY": 0.0012452, "INCLINATION": 97.7399, "RA_OF_ASC_NODE": 278.4278, "ARG_OF_PERICENTER": 240.0435, "MEAN_ANOMALY": 119.9549, "EPHEMERIS_TYPE": 0, "CLASSIFICATION_TYPE": "U", "NORAD_CAT_ID": 66656, "ELEMENT_SET_NO": 999, "REV_AT_EPOCH": 308, "BSTAR": 0.00020739138, "MEAN_MOTION_DOT": 2.065e-05, "MEAN_MOTION_DDOT": 0}, "tle": {"line1": "1 66656U 25274G   25351.30578106  .00002065  00000+0  20739-3 0  9991", "line2": "2 66656  97.7399 278.4278 0012452 240.0435 119.9549 14.92303559  3085"}}, "geometry": {"type": "Point", "coordinates": [-82.34765366644713, 7.604186392717152]}}, {"type": "Feature", "properties": {"norad_id": 66657, "name": "SPIRONE", "group": "last-30-days", "lat": 20.919946455458042, "lon": -84.28231639640889, "alt_km": 594.2545417381589, "timestamp": "2025-12-17T13:48:36.279861+00:00", "meta": {"OBJECT_NAME": "SPIRONE", "OBJECT_ID": "2025-274H", "EPOCH": "2025-12-17T07:16:45.967584", "MEAN_MOTION": 14.92482598, "ECCENTRICITY": 0.00106558, "INCLINATION": 97.7396, "RA_OF_ASC_NODE": 278.4303, "ARG_OF_PERICENTER": 258.6573, "MEAN_ANOMALY": 101.3449, "EPHEMERIS_TYPE": 0, "CLASSIFICATION_TYPE": "U", "NORAD_CAT_ID": 66657, "ELEMENT_SET_NO": 999, "REV_AT_EPOCH": 308, "BSTAR": 0.0002135548, "MEAN_MOTION_DOT": 2.137e-05, "MEAN_MOTION_DDOT": 0}, "tle": {"line1": "1 66657U 25274H   25351.30330981  .00002137  00000+0  21355-3 0  9994", "line2": "2 66657  97.7396 278.4303 0010655 258.6573 101.3449 14.92482598  3088"}}, "geometry": {"type": "Point", "coordinates": [-84.28231639640889, 20.919946455458042]}}, {"type": "Feature", "properties": {"norad_id": 66658, "name": "2025-274J", "group": "last-30-days", "lat": 33.779272790437815, "lon": -86.51611899083788, "alt_km": 592.9016013216396, "timestamp": "2025-12-17T13:48:36.279870+00:00", "meta": {"OBJECT_NAME": "2025-274J", "OBJECT_ID": "2025-274J", "EPOCH": "2025-12-17T07:13:19.297056", "MEAN_MOTION": 14.92652844, "ECCENTRICITY": 0.00111648, "INCLINATION": 97.7395, "RA_OF_ASC_NODE": 278.4336, "ARG_OF_PERICENTER": 261.8636, "MEAN_ANOMALY": 98.1317, "EPHEMERIS_TYPE": 0, "CLASSIFICATION_TYPE": "U", "NORAD_CAT_ID": 66658, "ELEMENT_SET_NO": 999, "REV_AT_EPOCH": 308, "BSTAR": 0.00021924381, "MEAN_MOTION_DOT": 2.205e-05, "MEAN_MOTION_DDOT": 0}, "tle": {"line1": "1 66658U 25274J   25351.30091779  .00002205  00000+0  21924-3 0  9992", "line2": "2 66658  97.7395 278.4336 0011164 261.8636  98.1317 14.92652844  3086"}}, "geometry": {"type": "Point", "coordinates": [-86.51611899083788, 33.779272790437815]}}, {"type": "Feature", "properties": {"norad_id": 66659, "name": "JACK K", "group": "last-30-days", "lat": 47.483778452612775, "lon": -89.82084261864556, "alt_km": 591.7480191045115, "timestamp": "2025-12-17T13:48:36.279879+00:00", "meta": {"OBJECT_NAME": "JACK K", "OBJECT_ID": "2025-274K", "EPOCH": "2025-12-17T07:09:38.065536", "MEAN_MOTION": 14.92837552, "ECCENTRICITY": 0.00118894, "INCLINATION": 97.7398, "RA_OF_ASC_NODE": 278.4374, "ARG_OF_PERICENTER": 263.3223, "MEAN_ANOMALY": 96.6643, "EPHEMERIS_TYPE": 0, "CLASSIFICATION_TYPE": "U", "NORAD_CAT_ID": 66659, "ELEMENT_SET_NO": 999, "REV_AT_EPOCH": 308, "BSTAR": 0.00023154316, "MEAN_MOTION_DOT": 2.343e-05, "MEAN_MOTION_DDOT": 0}, "tle": {"line1": "1 66659U 25274K   25351.29835724  .00002343  00000+0  23154-3 0  9997", "line2": "2 66659  97.7398 278.4374 0011889 263.3223  96.6643 14.92837552  3081"}}, "geometry": {"type": "Point", "coordinates": [-89.82084261864556, 47.483778452612775]}}]}